[{"OBJECT_NAME":"STARLINK-3342","OBJECT_ID":"2022-001P","EPOCH":"2026-03-09T13:04:50.341440","MEAN_MOTION":15.13527546,"ECCENTRICITY":0.00011072,"INCLINATION":53.2137,"RA_OF_ASC_NODE":168.2566,"ARG_OF_PERICENTER":150.2604,"MEAN_ANOMALY":209.8454,"EPHEMERIS_TYPE":0,"CLASSIFICATION_TYPE":"U","NORAD_CAT_ID":50816,"ELEMENT_SET_NO":999,"REV_AT_EPOCH":23040,"BSTAR":0.0016459999,"MEAN_MOTION_DOT":0.00029653,"MEAN_MOTION_DDOT":0},{"OBJECT_NAME":"LEMUR-2-KREMPEL-BRO1","OBJECT_ID":"2025-061G","EPOCH":"2026-03-09T22:19:45.751296","MEAN_MOTION":15.13773226,"ECCENTRICITY":0.0017497,"INCLINATION":97.5535,"RA_OF_ASC_NODE":45.5283,"ARG_OF_PERICENTER":227.946,"MEAN_ANOMALY":132.0284,"EPHEMERIS_TYPE":0,"CLASSIFICATION_TYPE":"U","NORAD_CAT_ID":63357,"ELEMENT_SET_NO":999,"REV_AT_EPOCH":5261,"BSTAR":0.00031891713,"MEAN_MOTION_DOT":5.707e-5,"MEAN_MOTION_DDOT":0}]
